# Made by eph2tle, compiled Dec 17 2024 20:30:40
# Run at Sun Dec 22 10:04:34 2024
#
#    The following TLEs (Two-Line Elements) were generated by fitting
# a numerically-integrated ephemeris,  based on the orbit given below,
# to the SDP4/SGP4 models.  Each TLE is good for the interval between
# its epoch and the epoch of the subsequent TLE (usually one day).
# The maximum deviation between the numerically integrated ephemerides
# and the TLE-based ephemeris, in kilometers,  is given for each TLE
# as the "worst residual".
#
#    This fitting is done using the 'eph2tle' code packaged with Find_Orb.
# The code has details on how the TLEs were computed :
#
#    https://github.com/Bill-Gray/find_orb/eph2tle.cpp
#
#    Be warned:  the error given is that between the numerically
# integrated ephems and the TLE model.  There will usually be at
# least some additional difference between the ephems and the actual
# motion of the satellite,  especially if the ephemerides are based
# on a short arc.  If the following orbital elements say something
# like "[based on] 10 observations 2015 Jan. 1-13",  and the TLEs
# are for 2015 May,  the extrapolation may be tenuous at best.  If
# your application requires a specific level of accuracy,  you may
# want to contact me;  I can give you some idea as to the fit of the
# underlying data (and possibly TLEs based on newer data).
#
#   You can usually find the underlying observational data,  and the
# fitted orbit,  residuals,  ephemerides,  and sometimes some comments
# about the object,  among the pages listed at
#
#    https://www.projectpluto.com/pluto/mpecs/pseudo.htm
#
#    WARNING:  for this object,  "normal" TLEs cannot be fitted.  (This
# usually means an object with an hyperbolic or nearly-parabolic orbit.)
# For this and similar cases,   an alternative model is used,  in which
# most of the traditional TLE data is replaced by six signed 8-digit hex
# numbers.  These six numbers are a state vector,  numerically integrated
# using a simplified force model.  This is necessary for objects at L2 or
# L1,  and sometimes for objects in high orbits where the SDP4/SGP4 model
# fails.  Some documentation is in 'get_el.cpp' in the source code at
# https://www.github.com/Bill-Gray/sat_code ; look for 'hex' in that file,
# with the actual integration done in 'sdp4.cpp'.  But be aware:  it's my
# own extension,  doesn't work with other code,  and is therefore used
# only when necessary.
#
#    Also,  if you use a TLE outside the "correct" time range (between
# its MJD and that of the next TLE),  all bets are off.  I've carefully
# computed and minimized the worst error over the "correct" time frame,
# but the ephemeris may (or may not) diverge wildly outside of it.
#
# Ephem range: 60676.000000 60862.000000 1.000000
# Created Sun Dec 22 10:04:30 2024
# Ephemeris start:  1 Jan 2025  0:00:00
# Ephemeris end:    6 Jul 2025  0:00:00
# Times are all TDT
# Positions/velocities are in equatorial J2000
# Orbital elements:  2024-083A = NORAD 59627 = Chang'e-6 Guidao Qi
#    Perihelion 2024 Dec 26.565384 +/- 0.00128 TT = 13:34:09.2 (JD 2460671.065384)
# Epoch 2024 Dec 19.0 TT; AMR 0.018749 +/- 0.000279 m^2/kg   Earth MOID: 0.0115
# M 352.752791318 +/- 0.0012          (J2000 ecliptic)             Find_Orb
# n   0.957943243 +/- 8.15e-7         Peri.  173.898515 +/- 0.0021
# a   1.019161158 +/- 5.78e-7         Node   281.002086 +/- 0.0008
# e   0.02338164 +/- 2.74e-7          Incl.    0.052959 +/- 0.0000006
# P   1.029/375.798d         H 28.34  G  0.15   U  3.3
# q 0.995331495 +/- 2.86e-7    Q 1.042990820 +/- 8.7e-7
# 183 of 327 observations 2024 Sept. 9-Dec. 20; mean residual 0".443
#
# 1 NoradU COSPAR   Epoch.epoch     dn/dt/2  d2n/dt2/6 BSTAR    T El# C
# 2 NoradU Inclina RAAscNode Eccent  ArgPeri MeanAno  MeanMotion Rev# C

# Worst residual: 0.85 km
# MJD 60676.000000 (2025 Jan  1  0:00)
2024-083A = NORAD 59627 = Chang'e-6 Guidao Qi
1 59627U 24083A   24366.99919926 -000SBMVQ +00QFYKIA +00BLRF0EH 25482
2 59627                          +0000GSKC +00005J7I -00004LVI     08

# Worst residual: 0.84 km
# MJD 60677.000000 (2025 Jan  2  0:00)
2024-083A = NORAD 59627 = Chang'e-6 Guidao Qi
1 59627U 24083A   25001.99919926 -000OEOHP +00QHCU4K +00BKOTTIH 25483
2 59627                          +0000FSZY +00006374 -00004BWO     06

# Worst residual: 0.85 km
# MJD 60678.000000 (2025 Jan  3  0:00)
2024-083A = NORAD 59627 = Chang'e-6 Guidao Qi
1 59627U 24083A   25002.99919926 -000KR5GO +00QIVI24 +00BJOGBQH 25481
2 59627                          +0000EM4H +00006JO0 -000043J0     09

# Worst residual: 0.88 km
# MJD 60679.000000 (2025 Jan  4  0:00)
2024-083A = NORAD 59627 = Chang'e-6 Guidao Qi
1 59627U 24083A   25003.99919926 -000HEPGD +00QKHL8F +00BIPUALH 25489
2 59627                          +0000D8T0 +00006VKA -00003XAZ     09

# Worst residual: 0.92 km
# MJD 60680.000000 (2025 Jan  5  0:00)
2024-083A = NORAD 59627 = Chang'e-6 Guidao Qi
1 59627U 24083A   25004.99919926 -000EER8K +00QM5W9L +00BHSF0MH 25484
2 59627                          +0000BQ83 +00007212 -00003TP3     01

# Worst residual: 0.98 km
# MJD 60681.000000 (2025 Jan  6  0:00)
2024-083A = NORAD 59627 = Chang'e-6 Guidao Qi
1 59627U 24083A   25005.99919926 -000BSEB2 +00QNV1HV +00BGVIFJH 25486
2 59627                          +0000A3SM +000072HC -00003T0K     07

# Worst residual: 1.08 km
# MJD 60682.000000 (2025 Jan  7  0:00)
2024-083A = NORAD 59627 = Chang'e-6 Guidao Qi
1 59627U 24083A   25006.99919926 -0009KDAS +00QPJJKL +00BFYEJ8H 25481
2 59627                          +00008F27 +00006WNJ -00003VEA     08

# Worst residual: 1.18 km
# MJD 60683.000000 (2025 Jan  8  0:00)
2024-083A = NORAD 59627 = Chang'e-6 Guidao Qi
1 59627U 24083A   25007.99919926 -0007R1CT +00QR5WBZ +00BF0CYPH 25488
2 59627                          +00006PKZ +00006KMJ -000040SB     08

# Worst residual: 1.27 km
# MJD 60684.000000 (2025 Jan  9  0:00)
2024-083A = NORAD 59627 = Chang'e-6 Guidao Qi
1 59627U 24083A   25008.99919926 -0006CEH1 +00QSONS5 +00BE0OMMH 25488
2 59627                          +000050TM +000062TG -000048Y0     07

# Worst residual: 1.30 km
# MJD 60685.000000 (2025 Jan 10  0:00)
2024-083A = NORAD 59627 = Chang'e-6 Guidao Qi
1 59627U 24083A   25009.99919926 -0005C4U7 +00QU2IYN +00BCYR9SH 25484
2 59627                          +00003E19 +00005FYY -00004JGJ     04

# Worst residual: 1.29 km
# MJD 60686.000000 (2025 Jan 11  0:00)
2024-083A = NORAD 59627 = Chang'e-6 Guidao Qi
1 59627U 24083A   25010.99919926 -0004PN3P +00QVAEJ3 +00BBU2UZH 25481
2 59627                          +00001U5P +00004P3E -00004VRS     09

# Worst residual: 1.28 km
# MJD 60687.000000 (2025 Jan 12  0:00)
2024-083A = NORAD 59627 = Chang'e-6 Guidao Qi
1 59627U 24083A   25011.99919926 -0004G5EO +00QWBGQI +00BAMAMMH 25489
2 59627                          +00000DR0 +00003VDS -0000598A     07

# Worst residual: 1.29 km
# MJD 60688.000000 (2025 Jan 13  0:00)
2024-083A = NORAD 59627 = Chang'e-6 Guidao Qi
1 59627U 24083A   25012.99919926 -0004ISV3 +00QX56IJ +00B9B7MMH 25485
2 59627                          -00000Z1K +0000303A -00005N5H     00

# Worst residual: 1.33 km
# MJD 60689.000000 (2025 Jan 14  0:00)
2024-083A = NORAD 59627 = Chang'e-6 Guidao Qi
1 59627U 24083A   25013.99919926 -0004WR0W +00QXRBEG +00B7WSNUH 25483
2 59627                          -000028GN +000024E8 -000060WF     03

# Worst residual: 1.36 km
# MJD 60690.000000 (2025 Jan 15  0:00)
2024-083A = NORAD 59627 = Chang'e-6 Guidao Qi
1 59627U 24083A   25014.99919926 -0005L8XI +00QY5WAI +00B6F5M3H 25485
2 59627                          -00003F26 +0000199P -00006DY2     01

# Worst residual: 1.35 km
# MJD 60691.000000 (2025 Jan 16  0:00)
2024-083A = NORAD 59627 = Chang'e-6 Guidao Qi
1 59627U 24083A   25015.99919926 -0006JPDX +00QYD5C0 +00B4UIBRH 25489
2 59627                          -00004JLL +00000FET -00006PWK     03

# Worst residual: 1.28 km
# MJD 60692.000000 (2025 Jan 17  0:00)
2024-083A = NORAD 59627 = Chang'e-6 Guidao Qi
1 59627U 24083A   25016.99919926 -0007RQBA +00QYDFGI +00B375AZH 25487
2 59627                          -00005MY2 -00000CRK -000070JK     08

# Worst residual: 1.17 km
# MJD 60693.000000 (2025 Jan 18  0:00)
2024-083A = NORAD 59627 = Chang'e-6 Guidao Qi
1 59627U 24083A   25017.99919926 -0009956V +00QY761V +00B1HEGPH 25480
2 59627                          -00006PYY -0000133L -000079RH     03

# Worst residual: 1.06 km
# MJD 60694.000000 (2025 Jan 19  0:00)
2024-083A = NORAD 59627 = Chang'e-6 Guidao Qi
1 59627U 24083A   25018.99919926 -000AZYT6 +00QXUT1L +00AZPM3QH 25487
2 59627                          -00007THK -00001RM6 -00007HKH     05

# Worst residual: 1.02 km
# MJD 60695.000000 (2025 Jan 20  0:00)
2024-083A = NORAD 59627 = Chang'e-6 Guidao Qi
1 59627U 24083A   25019.99919926 -000D0EMT +00QXCRJO +00AXW45SH 25487
2 59627                          -00008Y83 -00002EGV -00007O1A     03

# Worst residual: 1.07 km
# MJD 60696.000000 (2025 Jan 21  0:00)
2024-083A = NORAD 59627 = Chang'e-6 Guidao Qi
1 59627U 24083A   25020.99919926 -000FAU1E +00QWPEYN +00AW17PLH 25489
2 59627                          -0000A4TQ -00002ZW4 -00007TA7     08

# Worst residual: 1.18 km
# MJD 60697.000000 (2025 Jan 22  0:00)
2024-083A = NORAD 59627 = Chang'e-6 Guidao Qi
1 59627U 24083A   25021.99919926 -000HVRO1 +00QVX2FP +00AU56NMH 25485
2 59627                          -0000BDVA -00003K67 -00007XGM     07

# Worst residual: 1.31 km
# MJD 60698.000000 (2025 Jan 23  0:00)
2024-083A = NORAD 59627 = Chang'e-6 Guidao Qi
1 59627U 24083A   25022.99919926 -000KRUZG +00QUZYGP +00AS89HSH 25489
2 59627                          -0000CPWB -000043MY -000080QV     09

# Worst residual: 1.38 km
# MJD 60699.000000 (2025 Jan 24  0:00)
2024-083A = NORAD 59627 = Chang'e-6 Guidao Qi
1 59627U 24083A   25023.99919926 -000NZW1Q +00QTY8H6 +00AQAN2RH 25480
2 59627                          -0000E5FN -00004MO6 -000083CF     00

